{"type": "FeatureCollection", "features": [ {"type": "Feature", "properties": {"norad_id": 66757, "name": "TRANSPORTER-15CV", "group": "last-30-days", "lat": -7.421691266714036, "lon": -108.61961278839902, "alt_km": 515.2796119809345, "timestamp": "2025-12-26T19:22:37.605599+00:00", "meta": {"OBJECT_NAME": "TRANSPORTER-15CV", "OBJECT_ID": "2025-276CV", "EPOCH": "2025-12-26T05:54:03.004704", "MEAN_MOTION": 15.18289271, "ECCENTRICITY": 0.00028631, "INCLINATION": 97.4409, "RA_OF_ASC_NODE": 71.8035, "ARG_OF_PERICENTER": 298.0607, "MEAN_ANOMALY": 62.0337, "EPHEMERIS_TYPE": 0, "CLASSIFICATION_TYPE": "U", "NORAD_CAT_ID": 66757, "ELEMENT_SET_NO": 999, "REV_AT_EPOCH": 417, "BSTAR": 0.0052115974, "MEAN_MOTION_DOT": 0.00108292, "MEAN_MOTION_DDOT": 0}, "tle": {"line1": "1 66757U 25276CV  25360.24586811  .00108292  00000+0  52116-2 0  9992", "line2": "2 66757  97.4409  71.8035 0002863 298.0607  62.0337 15.18289271  4178"}}, "geometry": {"type": "Point", "coordinates": [-108.61961278839902, -7.421691266714036]}}, {"type": "Feature", "properties": {"norad_id": 66758, "name": "TRANSPORTER-15CW", "group": "last-30-days", "lat": -8.427399985413624, "lon": -108.76307688593076, "alt_km": 514.9814986848969, "timestamp": "2025-12-26T19:22:37.605609+00:00", "meta": {"OBJECT_NAME": "TRANSPORTER-15CW", "OBJECT_ID": "2025-276CW", "EPOCH": "2025-12-26T13:48:15.424128", "MEAN_MOTION": 15.18119766, "ECCENTRICITY": 0.00015543, "INCLINATION": 97.4386, "RA_OF_ASC_NODE": 72.1178, "ARG_OF_PERICENTER": 136.2894, "MEAN_ANOMALY": 223.8463, "EPHEMERIS_TYPE": 0, "CLASSIFICATION_TYPE": "U", "NORAD_CAT_ID": 66758, "ELEMENT_SET_NO": 999, "REV_AT_EPOCH": 422, "BSTAR": 0.00035694652, "MEAN_MOTION_DOT": 7.218e-05, "MEAN_MOTION_DDOT": 0}, "tle": {"line1": "1 66758U 25276CW  25360.57517852  .00007218  00000+0  35695-3 0  9998", "line2": "2 66758  97.4386  72.1178 0001554 136.2894 223.8463 15.18119766  4226"}}, "geometry": {"type": "Point", "coordinates": [-108.76307688593076, -8.427399985413624]}}, {"type": "Feature", "properties": {"norad_id": 66759, "name": "TRANSPORTER-15CX", "group": "last-30-days", "lat": -19.296066310056155, "lon": -110.27165825634444, "alt_km": 515.6257410779526, "timestamp": "2025-12-26T19:22:37.605619+00:00", "meta": {"OBJECT_NAME": "TRANSPORTER-15CX", "OBJECT_ID": "2025-276CX", "EPOCH": "2025-12-26T12:10:29.179488", "MEAN_MOTION": 15.18261229, "ECCENTRICITY": 0.00016711, "INCLINATION": 97.4401, "RA_OF_ASC_NODE": 72.0556, "ARG_OF_PERICENTER": 150.7258, "MEAN_ANOMALY": 209.407, "EPHEMERIS_TYPE": 0, "CLASSIFICATION_TYPE": "U", "NORAD_CAT_ID": 66759, "ELEMENT_SET_NO": 999, "REV_AT_EPOCH": 421, "BSTAR": -0.0016437629, "MEAN_MOTION_DOT": -0.00033558, "MEAN_MOTION_DDOT": 0}, "tle": {"line1": "1 66759U 25276CX  25360.50728217 -.00033558  00000+0 -16438-2 0  9992", "line2": "2 66759  97.4401  72.0556 0001671 150.7258 209.4070 15.18261229  4214"}}, "geometry": {"type": "Point", "coordinates": [-110.27165825634444, -19.296066310056155]}}, {"type": "Feature", "properties": {"norad_id": 66760, "name": "TRANSPORTER-15CY", "group": "last-30-days", "lat": -20.986198347819872, "lon": -110.51957516509013, "alt_km": 516.4982177545717, "timestamp": "2025-12-26T19:22:37.605629+00:00", "meta": {"OBJECT_NAME": "TRANSPORTER-15CY", "OBJECT_ID": "2025-276CY", "EPOCH": "2025-12-26T13:44:56.661792", "MEAN_MOTION": 15.18238885, "ECCENTRICITY": 0.00017558, "INCLINATION": 97.4393, "RA_OF_ASC_NODE": 72.1228, "ARG_OF_PERICENTER": 112.2202, "MEAN_ANOMALY": 247.9219, "EPHEMERIS_TYPE": 0, "CLASSIFICATION_TYPE": "U", "NORAD_CAT_ID": 66760, "ELEMENT_SET_NO": 999, "REV_AT_EPOCH": 422, "BSTAR": 0.00050120483, "MEAN_MOTION_DOT": 0.000102, "MEAN_MOTION_DDOT": 0}, "tle": {"line1": "1 66760U 25276CY  25360.57287803  .00010200  00000+0  50120-3 0  9996", "line2": "2 66760  97.4393  72.1228 0001755 112.2202 247.9219 15.18238885  4223"}}, "geometry": {"type": "Point", "coordinates": [-110.51957516509013, -20.986198347819872]}}, {"type": "Feature", "properties": {"norad_id": 66761, "name": "TRANSPORTER-15CZ", "group": "last-30-days", "lat": -38.86143257503403, "lon": -113.68289830642588, "alt_km": 516.8744748651479, "timestamp": "2025-12-26T19:22:37.605639+00:00", "meta": {"OBJECT_NAME": "TRANSPORTER-15CZ", "OBJECT_ID": "2025-276CZ", "EPOCH": "2025-12-26T15:15:07.873056", "MEAN_MOTION": 15.18558284, "ECCENTRICITY": 0.00017247, "INCLINATION": 97.4389, "RA_OF_ASC_NODE": 72.1915, "ARG_OF_PERICENTER": 121.8499, "MEAN_ANOMALY": 238.2903, "EPHEMERIS_TYPE": 0, "CLASSIFICATION_TYPE": "U", "NORAD_CAT_ID": 66761, "ELEMENT_SET_NO": 999, "REV_AT_EPOCH": 423, "BSTAR": 0.00054951585, "MEAN_MOTION_DOT": 0.00011295, "MEAN_MOTION_DDOT": 0}, "tle": {"line1": "1 66761U 25276CZ  25360.63550779  .00011295  00000+0  54952-3 0  9991", "line2": "2 66761  97.4389  72.1915 0001724 121.8499 238.2903 15.18558284  4234"}}, "geometry": {"type": "Point", "coordinates": [-113.68289830642588, -38.86143257503403]}}, {"type": "Feature", "properties": {"norad_id": 66762, "name": "HYDROGNSS-1", "group": "last-30-days", "lat": 63.083101583478154, "lon": -92.76373306579964, "alt_km": 508.0524634252597, "timestamp": "2025-12-26T19:22:37.605649+00:00", "meta": {"OBJECT_NAME": "HYDROGNSS-1", "OBJECT_ID": "2025-276DA", "EPOCH": "2025-12-26T10:57:15.800832", "MEAN_MOTION": 15.17329748, "ECCENTRICITY": 0.00010339, "INCLINATION": 97.4401, "RA_OF_ASC_NODE": 71.976, "ARG_OF_PERICENTER": 229.4074, "MEAN_ANOMALY": 130.7069, "EPHEMERIS_TYPE": 0, "CLASSIFICATION_TYPE": "U", "NORAD_CAT_ID": 66762, "ELEMENT_SET_NO": 999, "REV_AT_EPOCH": 420, "BSTAR": 0.0002691441, "MEAN_MOTION_DOT": 5.302e-05, "MEAN_MOTION_DDOT": 0}, "tle": {"line1": "1 66762U 25276DA  25360.45643288  .00005302  00000+0  26914-3 0  9999", "line2": "2 66762  97.4401  71.9760 0001033 229.4074 130.7069 15.17329748  4208"}}, "geometry": {"type": "Point", "coordinates": [-92.76373306579964, 63.083101583478154]}}, {"type": "Feature", "properties": {"norad_id": 66763, "name": "HYDROGNSS-2", "group": "last-30-days", "lat": 50.62339007863141, "lon": -98.50704700185631, "alt_km": 508.90658498912126, "timestamp": "2025-12-26T19:22:37.605661+00:00", "meta": {"OBJECT_NAME": "HYDROGNSS-2", "OBJECT_ID": "2025-276DB", "EPOCH": "2025-12-26T01:24:10.974240", "MEAN_MOTION": 15.17451017, "ECCENTRICITY": 0.00016493, "INCLINATION": 97.4407, "RA_OF_ASC_NODE": 71.5946, "ARG_OF_PERICENTER": 220.2496, "MEAN_ANOMALY": 139.8616, "EPHEMERIS_TYPE": 0, "CLASSIFICATION_TYPE": "U", "NORAD_CAT_ID": 66763, "ELEMENT_SET_NO": 999, "REV_AT_EPOCH": 414, "BSTAR": 0.00018696789, "MEAN_MOTION_DOT": 3.675e-05, "MEAN_MOTION_DDOT": 0}, "tle": {"line1": "1 66763U 25276DB  25360.05846035  .00003675  00000+0  18697-3 0  9991", "line2": "2 66763  97.4407  71.5946 0001649 220.2496 139.8616 15.17451017  4143"}}, "geometry": {"type": "Point", "coordinates": [-98.50704700185631, 50.62339007863141]}}, {"type": "Feature", "properties": {"norad_id": 66764, "name": "TRANSPORTER-15DC", "group": "last-30-days", "lat": 23.35120953292376, "lon": -104.43027046784664, "alt_km": 510.79243105491787, "timestamp": "2025-12-26T19:22:37.605670+00:00", "meta": {"OBJECT_NAME": "TRANSPORTER-15DC", "OBJECT_ID": "2025-276DC", "EPOCH": "2025-12-26T13:56:36.579552", "MEAN_MOTION": 15.17718676, "ECCENTRICITY": 0.00024767, "INCLINATION": 97.4397, "RA_OF_ASC_NODE": 72.1132, "ARG_OF_PERICENTER": 181.8453, "MEAN_ANOMALY": 178.2772, "EPHEMERIS_TYPE": 0, "CLASSIFICATION_TYPE": "U", "NORAD_CAT_ID": 66764, "ELEMENT_SET_NO": 999, "REV_AT_EPOCH": 422, "BSTAR": 0.00052112761, "MEAN_MOTION_DOT": 0.00010452, "MEAN_MOTION_DDOT": 0}, "tle": {"line1": "1 66764U 25276DC  25360.58097893  .00010452  00000+0  52113-3 0  9992", "line2": "2 66764  97.4397  72.1132 0002476 181.8453 178.2772 15.17718676  4226"}}, "geometry": {"type": "Point", "coordinates": [-104.43027046784664, 23.35120953292376]}}, {"type": "Feature", "properties": {"norad_id": 66765, "name": "TRANSPORTER-15DD", "group": "last-30-days", "lat": -60.36689952058006, "lon": -120.90520378168661, "alt_km": 517.3518227463392, "timestamp": "2025-12-26T19:22:37.605683+00:00", "meta": {"OBJECT_NAME": "TRANSPORTER-15DD", "OBJECT_ID": "2025-276DD", "EPOCH": "2025-12-26T15:09:22.428576", "MEAN_MOTION": 15.18829391, "ECCENTRICITY": 0.00019609, "INCLINATION": 97.4413, "RA_OF_ASC_NODE": 72.205, "ARG_OF_PERICENTER": 114.9939, "MEAN_ANOMALY": 245.1499, "EPHEMERIS_TYPE": 0, "CLASSIFICATION_TYPE": "U", "NORAD_CAT_ID": 66765, "ELEMENT_SET_NO": 999, "REV_AT_EPOCH": 423, "BSTAR": 0.0006875398, "MEAN_MOTION_DOT": 0.00014266, "MEAN_MOTION_DDOT": 0}, "tle": {"line1": "1 66765U 25276DD  25360.63150959  .00014266  00000+0  68754-3 0  9997", "line2": "2 66765  97.4413  72.2050 0001960 114.9939 245.1499 15.18829391  4238"}}, "geometry": {"type": "Point", "coordinates": [-120.90520378168661, -60.36689952058006]}}, {"type": "Feature", "properties": {"norad_id": 66766, "name": "TRANSPORTER-15DE", "group": "last-30-days", "lat": -40.976842407636624, "lon": -114.16427374501032, "alt_km": 518.024894744728, "timestamp": "2025-12-26T19:22:37.605693+00:00", "meta": {"OBJECT_NAME": "TRANSPORTER-15DE", "OBJECT_ID": "2025-276DE", "EPOCH": "2025-12-26T15:14:32.983008", "MEAN_MOTION": 15.18463173, "ECCENTRICITY": 0.00019292, "INCLINATION": 97.4355, "RA_OF_ASC_NODE": 72.1797, "ARG_OF_PERICENTER": 87.5181, "MEAN_ANOMALY": 272.6274, "EPHEMERIS_TYPE": 0, "CLASSIFICATION_TYPE": "U", "NORAD_CAT_ID": 66766, "ELEMENT_SET_NO": 999, "REV_AT_EPOCH": 423, "BSTAR": 0.00055338234, "MEAN_MOTION_DOT": 0.00011344, "MEAN_MOTION_DDOT": 0}, "tle": {"line1": "1 66766U 25276DE  25360.63510397  .00011344  00000+0  55338-3 0  9992", "line2": "2 66766  97.4355  72.1797 0001929  87.5181 272.6274 15.18463173  4238"}}, "geometry": {"type": "Point", "coordinates": [-114.16427374501032, -40.976842407636624]}}]}